start=new Date('2023-02-03T00:00:00.000Z').valueOf();
sats=[{"TIME_SYSTEM":"UTC","CENTER_NAME":"EARTH","RCS_SIZE":"LARGE","INCLINATION":"53.0499","SITE":"AFETR","FILE":"3768366","COUNTRY_CODE":"US","REF_FRAME":"TEME","MEAN_MOTION_DDOT":"0.0000000000000","TLE_LINE1":"1 44735U 19074Y   23033.46622727 -.00003348  00000-0 -20596-3 0  9996","MEAN_ANOMALY":"284.1793","DECAY_DATE":null,"OBJECT_NAME":"STARLINK-1030","CLASSIFICATION_TYPE":"U","OBJECT_TYPE":"PAYLOAD","MEAN_MOTION_DOT":"-0.00003348","MEAN_ELEMENT_THEORY":"SGP4","PERIAPSIS":"546.066","ECCENTRICITY":"0.00016690","REV_AT_EPOCH":"17796","OBJECT_ID":"2019-074Y","EPOCH":"2023-02-02T11:11:22.036128","ARG_OF_PERICENTER":"75.9381","RA_OF_ASC_NODE":"244.8805","SEMIMAJOR_AXIS":"6925.357","TLE_LINE2":"2 44735  53.0499 244.8805 0001669  75.9381 284.1793 15.06397242177964","LAUNCH_DATE":"2019-11-11","ELEMENT_SET_NO":"999","PERIOD":"95.592","BSTAR":"-0.00020596000000","GP_ID":"224238325","EPHEMERIS_TYPE":"0","APOAPSIS":"548.378","MEAN_MOTION":"15.06397242","NORAD_CAT_ID":"44735"},{"LAUNCH_DATE":"2019-11-11","TLE_LINE2":"2 44736  53.0503 242.7319 0000716 106.5578 253.5490 15.06428875178219","SEMIMAJOR_AXIS":"6925.260","RA_OF_ASC_NODE":"242.7319","ARG_OF_PERICENTER":"106.5578","EPOCH":"2023-02-02T22:41:19.594752","OBJECT_ID":"2019-074Z","NORAD_CAT_ID":"44736","MEAN_MOTION":"15.06428875","APOAPSIS":"547.621","EPHEMERIS_TYPE":"0","GP_ID":"224251775","BSTAR":"0.00028060000000","ELEMENT_SET_NO":"999","PERIOD":"95.590","COUNTRY_CODE":"US","REF_FRAME":"TEME","MEAN_MOTION_DDOT":"0.0000000000000","FILE":"3768711","SITE":"AFETR","INCLINATION":"53.0503","RCS_SIZE":"LARGE","CENTER_NAME":"EARTH","TIME_SYSTEM":"UTC","PERIAPSIS":"546.629","ECCENTRICITY":"0.00007160","REV_AT_EPOCH":"17821","MEAN_ELEMENT_THEORY":"SGP4","OBJECT_TYPE":"PAYLOAD","MEAN_MOTION_DOT":"0.00003904","CLASSIFICATION_TYPE":"U","TLE_LINE1":"1 44736U 19074Z   23033.94536568  .00003904  00000-0  28060-3 0  9997","MEAN_ANOMALY":"253.5490","DECAY_DATE":null,"OBJECT_NAME":"STARLINK-1031"},{"COUNTRY_CODE":"US","REF_FRAME":"TEME","MEAN_MOTION_DDOT":"0.0000000000000","SITE":"AFETR","FILE":"3768366","INCLINATION":"53.0526","CENTER_NAME":"EARTH","TIME_SYSTEM":"UTC","RCS_SIZE":"LARGE","PERIAPSIS":"546.378","REV_AT_EPOCH":"17790","ECCENTRICITY":"0.00012500","MEAN_ELEMENT_THEORY":"SGP4","OBJECT_TYPE":"PAYLOAD","MEAN_MOTION_DOT":"0.00001341","DECAY_DATE":null,"TLE_LINE1":"1 44737U 19074AA  23033.02760757  .00001341  00000-0  10894-3 0  9995","MEAN_ANOMALY":"270.4163","OBJECT_NAME":"STARLINK-1032","CLASSIFICATION_TYPE":"U","LAUNCH_DATE":"2019-11-11","RA_OF_ASC_NODE":"246.8483","TLE_LINE2":"2 44737  53.0526 246.8483 0001250  89.6969 270.4163 15.06390204177905","SEMIMAJOR_AXIS":"6925.379","EPOCH":"2023-02-02T00:39:45.294048","ARG_OF_PERICENTER":"89.6969","OBJECT_ID":"2019-074AA","APOAPSIS":"548.109","EPHEMERIS_TYPE":"0","MEAN_MOTION":"15.06390204","NORAD_CAT_ID":"44737","BSTAR":"0.00010894000000","GP_ID":"224237832","ELEMENT_SET_NO":"999","PERIOD":"95.593"},{"PERIOD":"95.592","ELEMENT_SET_NO":"999","NORAD_CAT_ID":"44738","EPHEMERIS_TYPE":"0","APOAPSIS":"548.029","MEAN_MOTION":"15.06397979","GP_ID":"224238074","BSTAR":"0.00000667870000","ARG_OF_PERICENTER":"99.7039","EPOCH":"2023-02-02T00:18:31.161888","OBJECT_ID":"2019-074AB","LAUNCH_DATE":"2019-11-11","SEMIMAJOR_AXIS":"6925.355","TLE_LINE2":"2 44738  53.0515 246.9170 0001169  99.7039 260.4082 15.06397979177890","RA_OF_ASC_NODE":"246.9170","OBJECT_TYPE":"PAYLOAD","MEAN_MOTION_DOT":"-0.00000182","CLASSIFICATION_TYPE":"U","TLE_LINE1":"1 44738U 19074AB  23033.01286067 -.00000182  00000-0  66787-5 0  9999","DECAY_DATE":null,"MEAN_ANOMALY":"260.4082","OBJECT_NAME":"STARLINK-1033","PERIAPSIS":"546.410","ECCENTRICITY":"0.00011690","REV_AT_EPOCH":"17789","MEAN_ELEMENT_THEORY":"SGP4","INCLINATION":"53.0515","RCS_SIZE":"LARGE","TIME_SYSTEM":"UTC","CENTER_NAME":"EARTH","COUNTRY_CODE":"US","MEAN_MOTION_DDOT":"0.0000000000000","REF_FRAME":"TEME","FILE":"3768366","SITE":"AFETR"},{"ELEMENT_SET_NO":"999","PERIOD":"94.208","NORAD_CAT_ID":"44739","MEAN_MOTION":"15.28528212","APOAPSIS":"481.077","EPHEMERIS_TYPE":"0","GP_ID":"224251583","BSTAR":"0.00071632000000","ARG_OF_PERICENTER":"238.6395","EPOCH":"2023-02-02T21:05:31.795872","OBJECT_ID":"2019-074AC","LAUNCH_DATE":"2019-11-11","SEMIMAJOR_AXIS":"6858.348","TLE_LINE2":"2 44739  52.9654 208.9911 0001260 238.6395 121.4479 15.28528212178601","RA_OF_ASC_NODE":"208.9911","MEAN_MOTION_DOT":"0.00019855","OBJECT_TYPE":"PAYLOAD","CLASSIFICATION_TYPE":"U","OBJECT_NAME":"STARLINK-1034","MEAN_ANOMALY":"121.4479","TLE_LINE1":"1 44739U 19074AC  23033.87884023  .00019855  00000-0  71632-3 0  9999","DECAY_DATE":null,"REV_AT_EPOCH":"17860","ECCENTRICITY":"0.00012600","PERIAPSIS":"479.349","MEAN_ELEMENT_THEORY":"SGP4","INCLINATION":"52.9654","RCS_SIZE":"LARGE","TIME_SYSTEM":"UTC","CENTER_NAME":"EARTH","REF_FRAME":"TEME","MEAN_MOTION_DDOT":"0.0000000000000","COUNTRY_CODE":"US","FILE":"3768712","SITE":"AFETR"},{"REF_FRAME":"TEME","MEAN_MOTION_DDOT":"0.0000000000000","COUNTRY_CODE":"US","SITE":"AFETR","FILE":"3767525","INCLINATION":"53.0508","TIME_SYSTEM":"UTC","CENTER_NAME":"EARTH","RCS_SIZE":"LARGE","ECCENTRICITY":"0.00012630","REV_AT_EPOCH":"17783","PERIAPSIS":"546.350","MEAN_ELEMENT_THEORY":"SGP4","MEAN_MOTION_DOT":"0.00000392","OBJECT_TYPE":"PAYLOAD","OBJECT_NAME":"STARLINK-1035","TLE_LINE1":"1 44740U 19074AD  23032.55948930  .00000392  00000-0  45241-4 0  9997","MEAN_ANOMALY":"268.4942","DECAY_DATE":null,"CLASSIFICATION_TYPE":"U","LAUNCH_DATE":"2019-11-11","RA_OF_ASC_NODE":"248.9535","SEMIMAJOR_AXIS":"6925.360","TLE_LINE2":"2 44740  53.0508 248.9535 0001263  91.6192 268.4942 15.06396262177839","EPOCH":"2023-02-01T13:25:39.875520","ARG_OF_PERICENTER":"91.6192","OBJECT_ID":"2019-074AD","MEAN_MOTION":"15.06396262","APOAPSIS":"548.100","EPHEMERIS_TYPE":"0","NORAD_CAT_ID":"44740","BSTAR":"0.00004524100000","GP_ID":"224193903","PERIOD":"95.592","ELEMENT_SET_NO":"999"},{"SITE":"AFETR","FILE":"3768366","COUNTRY_CODE":"US","REF_FRAME":"TEME","MEAN_MOTION_DDOT":"0.0000000000000","TIME_SYSTEM":"UTC","CENTER_NAME":"EARTH","RCS_SIZE":"LARGE","INCLINATION":"53.0521","MEAN_ELEMENT_THEORY":"SGP4","PERIAPSIS":"546.509","ECCENTRICITY":"0.00010430","REV_AT_EPOCH":"17788","TLE_LINE1":"1 44741U 19074AE  23032.90228489 -.00000081  00000-0  13472-4 0  9994","MEAN_ANOMALY":"270.3202","DECAY_DATE":null,"OBJECT_NAME":"STARLINK-1036","CLASSIFICATION_TYPE":"U","OBJECT_TYPE":"PAYLOAD","MEAN_MOTION_DOT":"-0.00000081","RA_OF_ASC_NODE":"247.4125","SEMIMAJOR_AXIS":"6925.366","TLE_LINE2":"2 44741  53.0521 247.4125 0001043  89.7906 270.3202 15.06394268177881","LAUNCH_DATE":"2019-11-11","OBJECT_ID":"2019-074AE","EPOCH":"2023-02-01T21:39:17.414496","ARG_OF_PERICENTER":"89.7906","BSTAR":"0.00001347200000","GP_ID":"224237333","MEAN_MOTION":"15.06394268","APOAPSIS":"547.953","EPHEMERIS_TYPE":"0","NORAD_CAT_ID":"44741","PERIOD":"95.593","ELEMENT_SET_NO":"999"},{"LAUNCH_DATE":"2019-11-11","RA_OF_ASC_NODE":"200.5684","TLE_LINE2":"2 44742  52.9702 200.5684 0000838  79.8669 280.2425 15.32182417178730","SEMIMAJOR_AXIS":"6847.439","EPOCH":"2023-02-02T20:17:28.426560","ARG_OF_PERICENTER":"79.8669","OBJECT_ID":"2019-074AF","MEAN_MOTION":"15.32182417","APOAPSIS":"469.878","EPHEMERIS_TYPE":"0","NORAD_CAT_ID":"44742","BSTAR":"0.00169760000000","GP_ID":"224251843","PERIOD":"93.984","ELEMENT_SET_NO":"999","REF_FRAME":"TEME","MEAN_MOTION_DDOT":"0.0000000000000","COUNTRY_CODE":"US","SITE":"AFETR","FILE":"3768724","INCLINATION":"52.9702","TIME_SYSTEM":"UTC","CENTER_NAME":"EARTH","RCS_SIZE":"LARGE","REV_AT_EPOCH":"17873","ECCENTRICITY":"0.00008380","PERIAPSIS":"468.730","MEAN_ELEMENT_THEORY":"SGP4","MEAN_MOTION_DOT":"0.00053503","OBJECT_TYPE":"PAYLOAD","OBJECT_NAME":"STARLINK-1037","MEAN_ANOMALY":"280.2425","TLE_LINE1":"1 44742U 19074AF  23033.84546790  .00053503  00000-0  16976-2 0  9993","DECAY_DATE":null,"CLASSIFICATION_TYPE":"U"},{"PERIAPSIS":"546.365","ECCENTRICITY":"0.00012160","REV_AT_EPOCH":"17789","MEAN_ELEMENT_THEORY":"SGP4","OBJECT_TYPE":"PAYLOAD","MEAN_MOTION_DOT":"0.00000272","TLE_LINE1":"1 44743U 19074AG  23033.68185733  .00000272  00000-0  37121-4 0  9994","MEAN_ANOMALY":"264.9979","DECAY_DATE":null,"OBJECT_NAME":"STARLINK-1038","CLASSIFICATION_TYPE":"U","COUNTRY_CODE":"US","REF_FRAME":"TEME","MEAN_MOTION_DDOT":"0.0000000000000","SITE":"AFETR","FILE":"3768724","INCLINATION":"53.0508","TIME_SYSTEM":"UTC","CENTER_NAME":"EARTH","RCS_SIZE":"LARGE","APOAPSIS":"548.050","EPHEMERIS_TYPE":"0","MEAN_MOTION":"15.06401949","NORAD_CAT_ID":"44743","BSTAR":"0.00003712100000","GP_ID":"224251855","ELEMENT_SET_NO":"999","PERIOD":"95.592","LAUNCH_DATE":"2019-11-11","RA_OF_ASC_NODE":"263.9123","SEMIMAJOR_AXIS":"6925.343","TLE_LINE2":"2 44743  53.0508 263.9123 0001216  95.1149 264.9979 15.06401949177897","EPOCH":"2023-02-02T16:21:52.473312","ARG_OF_PERICENTER":"95.1149","OBJECT_ID":"2019-074AG"},{"NORAD_CAT_ID":"44744","APOAPSIS":"548.174","MEAN_MOTION":"15.06400485","EPHEMERIS_TYPE":"0","GP_ID":"224251865","BSTAR":"0.00008065200000","PERIOD":"95.592","ELEMENT_SET_NO":"999","LAUNCH_DATE":"2019-11-11","TLE_LINE2":"2 44744  53.0511 262.9709 0001389 103.4773 256.6371 15.06400485177920","SEMIMAJOR_AXIS":"6925.347","RA_OF_ASC_NODE":"262.9709","ARG_OF_PERICENTER":"103.4773","EPOCH":"2023-02-02T21:24:24.784128","OBJECT_ID":"2019-074AH","REV_AT_EPOCH":"17792","ECCENTRICITY":"0.00013890","PERIAPSIS":"546.250","MEAN_ELEMENT_THEORY":"SGP4","MEAN_MOTION_DOT":"0.00000920","OBJECT_TYPE":"PAYLOAD","CLASSIFICATION_TYPE":"U","OBJECT_NAME":"STARLINK-1039","TLE_LINE1":"1 44744U 19074AH  23033.89195352  .00000920  00000-0  80652-4 0  9993","DECAY_DATE":null,"MEAN_ANOMALY":"256.6371","MEAN_MOTION_DDOT":"0.0000000000000","REF_FRAME":"TEME","COUNTRY_CODE":"US","FILE":"3768736","SITE":"AFETR","INCLINATION":"53.0511","RCS_SIZE":"LARGE","TIME_SYSTEM":"UTC","CENTER_NAME":"EARTH"}];
